[Satellite]
VERSION=1.1
NAME=AOBA VELOX-IV
NICKNAME=AOBA VELOX-IV
TLE1=1 43940U 19003J   20157.69882516  .00001651  00000-0  68631-4 0  9994
TLE2=2 43940  97.2286 209.3809 0021980 264.4490  95.4241 15.24977565 76858
STATUS=0
